{"type": "FeatureCollection", "features": [ {"type": "Feature", "properties": {"norad_id": 31658, "name": "FENGYUN 1C DEB", "group": "fengyun-1c-debris", "lat": 19.63378521745918, "lon": 26.754113474599755, "alt_km": 1011.5355375608724, "timestamp": "2025-12-21T16:47:55.021980+00:00", "meta": {"OBJECT_NAME": "FENGYUN 1C DEB", "OBJECT_ID": "1999-025CBQ", "EPOCH": "2025-12-18T19:21:10.242720", "MEAN_MOTION": 13.98854887, "ECCENTRICITY": 0.02153005, "INCLINATION": 98.1522, "RA_OF_ASC_NODE": 201.2458, "ARG_OF_PERICENTER": 305.6616, "MEAN_ANOMALY": 52.4673, "EPHEMERIS_TYPE": 0, "CLASSIFICATION_TYPE": "U", "NORAD_CAT_ID": 31658, "ELEMENT_SET_NO": 999, "REV_AT_EPOCH": 69901, "BSTAR": 0.0021112167, "MEAN_MOTION_DOT": 3.674e-05, "MEAN_MOTION_DDOT": 0}, "tle": {"line1": "1 31658U 99025CBQ 25352.80636855  .00003674  00000+0  21112-2 0  9994", "line2": "2 31658  98.1522 201.2458 0215300 305.6616  52.4673 13.98854887699015"}}, "geometry": {"type": "Point", "coordinates": [26.754113474599755, 19.63378521745918]}}, {"type": "Feature", "properties": {"norad_id": 31660, "name": "FENGYUN 1C DEB", "group": "fengyun-1c-debris", "lat": -48.04355765409795, "lon": 167.2203093230878, "alt_km": 787.6358337941665, "timestamp": "2025-12-21T16:47:55.021990+00:00", "meta": {"OBJECT_NAME": "FENGYUN 1C DEB", "OBJECT_ID": "1999-025CBS", "EPOCH": "2025-12-16T17:57:05.517792", "MEAN_MOTION": 14.27134643, "ECCENTRICITY": 0.01019278, "INCLINATION": 98.5088, "RA_OF_ASC_NODE": 351.9874, "ARG_OF_PERICENTER": 168.851, "MEAN_ANOMALY": 191.4963, "EPHEMERIS_TYPE": 0, "CLASSIFICATION_TYPE": "U", "NORAD_CAT_ID": 31660, "ELEMENT_SET_NO": 999, "REV_AT_EPOCH": 7973, "BSTAR": 0.0004636242, "MEAN_MOTION_DOT": 1.153e-05, "MEAN_MOTION_DDOT": 0}, "tle": {"line1": "1 31660U 99025CBS 25350.74798053  .00001153  00000+0  46362-3 0  9992", "line2": "2 31660  98.5088 351.9874 0101927 168.8510 191.4963 14.27134643 79736"}}, "geometry": {"type": "Point", "coordinates": [167.2203093230878, -48.04355765409795]}}, {"type": "Feature", "properties": {"norad_id": 31661, "name": "FENGYUN 1C DEB", "group": "fengyun-1c-debris", "lat": -56.01405872608028, "lon": -118.50524621585907, "alt_km": 780.5466990956393, "timestamp": "2025-12-21T16:47:55.022000+00:00", "meta": {"OBJECT_NAME": "FENGYUN 1C DEB", "OBJECT_ID": "1999-025CBT", "EPOCH": "2025-12-20T04:27:13.309344", "MEAN_MOTION": 14.25489004, "ECCENTRICITY": 0.00589426, "INCLINATION": 98.8591, "RA_OF_ASC_NODE": 73.3419, "ARG_OF_PERICENTER": 202.9747, "MEAN_ANOMALY": 186.5604, "EPHEMERIS_TYPE": 0, "CLASSIFICATION_TYPE": "U", "NORAD_CAT_ID": 31661, "ELEMENT_SET_NO": 999, "REV_AT_EPOCH": 95819, "BSTAR": 0.0011294573, "MEAN_MOTION_DOT": 2.673e-05, "MEAN_MOTION_DDOT": 0}, "tle": {"line1": "1 31661U 99025CBT 25354.18557071  .00002673  00000+0  11295-2 0  9992", "line2": "2 31661  98.8591  73.3419 0058942 202.9747 186.5604 14.25489004958194"}}, "geometry": {"type": "Point", "coordinates": [-118.50524621585907, -56.01405872608028]}}, {"type": "Feature", "properties": {"norad_id": 31663, "name": "FENGYUN 1C DEB", "group": "fengyun-1c-debris", "lat": -79.84465937383337, "lon": -35.27055982262727, "alt_km": 591.381742172749, "timestamp": "2025-12-21T16:47:55.022010+00:00", "meta": {"OBJECT_NAME": "FENGYUN 1C DEB", "OBJECT_ID": "1999-025CBV", "EPOCH": "2025-12-20T13:32:10.476960", "MEAN_MOTION": 14.76437425, "ECCENTRICITY": 0.0189847, "INCLINATION": 98.8391, "RA_OF_ASC_NODE": 263.1742, "ARG_OF_PERICENTER": 212.6958, "MEAN_ANOMALY": 146.2383, "EPHEMERIS_TYPE": 0, "CLASSIFICATION_TYPE": "U", "NORAD_CAT_ID": 31663, "ELEMENT_SET_NO": 999, "REV_AT_EPOCH": 99395, "BSTAR": 0.00016184, "MEAN_MOTION_DOT": 1.436e-05, "MEAN_MOTION_DDOT": 0}, "tle": {"line1": "1 31663U 99025CBV 25354.56401015  .00001436  00000+0  16184-3 0  9991", "line2": "2 31663  98.8391 263.1742 0189847 212.6958 146.2383 14.76437425993959"}}, "geometry": {"type": "Point", "coordinates": [-35.27055982262727, -79.84465937383337]}}, {"type": "Feature", "properties": {"norad_id": 31664, "name": "FENGYUN 1C DEB", "group": "fengyun-1c-debris", "lat": 53.152436997658526, "lon": 178.83908996402167, "alt_km": 763.3456801979391, "timestamp": "2025-12-21T16:47:55.022020+00:00", "meta": {"OBJECT_NAME": "FENGYUN 1C DEB", "OBJECT_ID": "1999-025CBW", "EPOCH": "2025-12-19T09:43:14.848608", "MEAN_MOTION": 14.10303916, "ECCENTRICITY": 0.0125159, "INCLINATION": 98.7526, "RA_OF_ASC_NODE": 344.7417, "ARG_OF_PERICENTER": 139.2787, "MEAN_ANOMALY": 221.7823, "EPHEMERIS_TYPE": 0, "CLASSIFICATION_TYPE": "U", "NORAD_CAT_ID": 31664, "ELEMENT_SET_NO": 999, "REV_AT_EPOCH": 96095, "BSTAR": 0.00029066, "MEAN_MOTION_DOT": 5.13e-06, "MEAN_MOTION_DDOT": 0}, "tle": {"line1": "1 31664U 99025CBW 25353.40503297  .00000513  00000+0  29066-3 0  9997", "line2": "2 31664  98.7526 344.7417 0125159 139.2787 221.7823 14.10303916960951"}}, "geometry": {"type": "Point", "coordinates": [178.83908996402167, 53.152436997658526]}}, {"type": "Feature", "properties": {"norad_id": 31665, "name": "FENGYUN 1C DEB", "group": "fengyun-1c-debris", "lat": 47.94209123554477, "lon": 28.293092869169257, "alt_km": 996.4422574555447, "timestamp": "2025-12-21T16:47:55.022030+00:00", "meta": {"OBJECT_NAME": "FENGYUN 1C DEB", "OBJECT_ID": "1999-025CBX", "EPOCH": "2025-12-16T08:14:19.517280", "MEAN_MOTION": 13.84829693, "ECCENTRICITY": 0.01897318, "INCLINATION": 98.4487, "RA_OF_ASC_NODE": 32.9474, "ARG_OF_PERICENTER": 177.2489, "MEAN_ANOMALY": 182.9759, "EPHEMERIS_TYPE": 0, "CLASSIFICATION_TYPE": "U", "NORAD_CAT_ID": 31665, "ELEMENT_SET_NO": 999, "REV_AT_EPOCH": 93241, "BSTAR": 0.0010116548, "MEAN_MOTION_DOT": 1.275e-05, "MEAN_MOTION_DDOT": 0}, "tle": {"line1": "1 31665U 99025CBX 25350.34328145  .00001275  00000+0  10117-2 0  9997", "line2": "2 31665  98.4487  32.9474 0189731 177.2489 182.9759 13.84829693932412"}}, "geometry": {"type": "Point", "coordinates": [28.293092869169257, 47.94209123554477]}}, {"type": "Feature", "properties": {"norad_id": 31666, "name": "FENGYUN 1C DEB", "group": "fengyun-1c-debris", "lat": 75.23954771234676, "lon": 109.81986850760477, "alt_km": 597.8935448351849, "timestamp": "2025-12-21T16:47:55.022040+00:00", "meta": {"OBJECT_NAME": "FENGYUN 1C DEB", "OBJECT_ID": "1999-025CBY", "EPOCH": "2025-12-20T09:42:35.339616", "MEAN_MOTION": 14.84327002, "ECCENTRICITY": 0.00208221, "INCLINATION": 98.6537, "RA_OF_ASC_NODE": 143.7281, "ARG_OF_PERICENTER": 126.2949, "MEAN_ANOMALY": 234.019, "EPHEMERIS_TYPE": 0, "CLASSIFICATION_TYPE": "U", "NORAD_CAT_ID": 31666, "ELEMENT_SET_NO": 999, "REV_AT_EPOCH": 97385, "BSTAR": 0.0025103019, "MEAN_MOTION_DOT": 0.00021141, "MEAN_MOTION_DDOT": 0}, "tle": {"line1": "1 31666U 99025CBY 25354.40457569  .00021141  00000+0  25103-2 0  9997", "line2": "2 31666  98.6537 143.7281 0020822 126.2949 234.0190 14.84327002973857"}}, "geometry": {"type": "Point", "coordinates": [109.81986850760477, 75.23954771234676]}}, {"type": "Feature", "properties": {"norad_id": 31667, "name": "FENGYUN 1C DEB", "group": "fengyun-1c-debris", "lat": 33.43883340083989, "lon": -158.0762950540749, "alt_km": 778.4535989771502, "timestamp": "2025-12-21T16:47:55.022050+00:00", "meta": {"OBJECT_NAME": "FENGYUN 1C DEB", "OBJECT_ID": "1999-025CBZ", "EPOCH": "2025-12-19T08:58:22.158048", "MEAN_MOTION": 14.23508815, "ECCENTRICITY": 0.0051766, "INCLINATION": 99.0843, "RA_OF_ASC_NODE": 205.588, "ARG_OF_PERICENTER": 68.7145, "MEAN_ANOMALY": 291.9549, "EPHEMERIS_TYPE": 0, "CLASSIFICATION_TYPE": "U", "NORAD_CAT_ID": 31667, "ELEMENT_SET_NO": 999, "REV_AT_EPOCH": 56087, "BSTAR": 0.00019687, "MEAN_MOTION_DOT": 4.07e-06, "MEAN_MOTION_DDOT": 0}, "tle": {"line1": "1 31667U 99025CBZ 25353.37386757  .00000407  00000+0  19687-3 0  9996", "line2": "2 31667  99.0843 205.5880 0051766  68.7145 291.9549 14.23508815560874"}}, "geometry": {"type": "Point", "coordinates": [-158.0762950540749, 33.43883340083989]}}, {"type": "Feature", "properties": {"norad_id": 31672, "name": "FENGYUN 1C DEB", "group": "fengyun-1c-debris", "lat": -80.19376298962429, "lon": -110.28107008191527, "alt_km": 671.3503788248036, "timestamp": "2025-12-21T16:47:55.022061+00:00", "meta": {"OBJECT_NAME": "FENGYUN 1C DEB", "OBJECT_ID": "1999-025CCE", "EPOCH": "2025-12-20T11:23:52.148832", "MEAN_MOTION": 14.51018489, "ECCENTRICITY": 0.01078222, "INCLINATION": 98.956, "RA_OF_ASC_NODE": 182.5765, "ARG_OF_PERICENTER": 318.553, "MEAN_ANOMALY": 40.752, "EPHEMERIS_TYPE": 0, "CLASSIFICATION_TYPE": "U", "NORAD_CAT_ID": 31672, "ELEMENT_SET_NO": 999, "REV_AT_EPOCH": 64983, "BSTAR": 0.0010644332, "MEAN_MOTION_DOT": 4.486e-05, "MEAN_MOTION_DDOT": 0}, "tle": {"line1": "1 31672U 99025CCE 25354.47490913  .00004486  00000+0  10644-2 0  9998", "line2": "2 31672  98.9560 182.5765 0107822 318.5530  40.7520 14.51018489649836"}}, "geometry": {"type": "Point", "coordinates": [-110.28107008191527, -80.19376298962429]}}, {"type": "Feature", "properties": {"norad_id": 31673, "name": "FENGYUN 1C DEB", "group": "fengyun-1c-debris", "lat": 12.489376424427041, "lon": -171.20773828988368, "alt_km": 697.8457540078571, "timestamp": "2025-12-21T16:47:55.022071+00:00", "meta": {"OBJECT_NAME": "FENGYUN 1C DEB", "OBJECT_ID": "1999-025CCF", "EPOCH": "2025-12-17T12:07:26.297472", "MEAN_MOTION": 14.31948399, "ECCENTRICITY": 0.01255829, "INCLINATION": 99.3741, "RA_OF_ASC_NODE": 186.3601, "ARG_OF_PERICENTER": 35.3112, "MEAN_ANOMALY": 325.6307, "EPHEMERIS_TYPE": 0, "CLASSIFICATION_TYPE": "U", "NORAD_CAT_ID": 31673, "ELEMENT_SET_NO": 999, "REV_AT_EPOCH": 64959, "BSTAR": 0.00017748965, "MEAN_MOTION_DOT": 4.66e-06, "MEAN_MOTION_DDOT": 0}, "tle": {"line1": "1 31673U 99025CCF 25351.50516548  .00000466  00000+0  17749-3 0  9991", "line2": "2 31673  99.3741 186.3601 0125582  35.3112 325.6307 14.31948399649598"}}, "geometry": {"type": "Point", "coordinates": [-171.20773828988368, 12.489376424427041]}}]}